{
  "links" : {
    "next" : "https://api.nasa.gov/neo/rest/v1/feed?start_date=2010-09-16&end_date=2010-09-16&detailed=true&api_key=t0TVs3DtDT2H8Oy2Zy8m2eVrNsAVKAexjcZXUckd",
    "prev" : "https://api.nasa.gov/neo/rest/v1/feed?start_date=2010-09-14&end_date=2010-09-14&detailed=true&api_key=t0TVs3DtDT2H8Oy2Zy8m2eVrNsAVKAexjcZXUckd",
    "self" : "https://api.nasa.gov/neo/rest/v1/feed?start_date=2010-09-15&end_date=2010-09-15&detailed=true&api_key=t0TVs3DtDT2H8Oy2Zy8m2eVrNsAVKAexjcZXUckd"
  },
  "element_count" : 7,
  "near_earth_objects" : {
    "2010-09-15" : [ {
      "links" : {
        "self" : "https://api.nasa.gov/neo/rest/v1/neo/3545484?api_key=t0TVs3DtDT2H8Oy2Zy8m2eVrNsAVKAexjcZXUckd"
      },
      "neo_reference_id" : "3545484",
      "name" : "(2010 RJ4)",
      "nasa_jpl_url" : "http://ssd.jpl.nasa.gov/sbdb.cgi?sstr=3545484",
      "absolute_magnitude_h" : 24.0,
      "estimated_diameter" : {
        "kilometers" : {
          "estimated_diameter_min" : 0.0421264611,
          "estimated_diameter_max" : 0.0941976306
        },
        "meters" : {
          "estimated_diameter_min" : 42.1264610556,
          "estimated_diameter_max" : 94.1976305719
        },
        "miles" : {
          "estimated_diameter_min" : 0.0261761612,
          "estimated_diameter_max" : 0.0585316759
        },
        "feet" : {
          "estimated_diameter_min" : 138.2101784897,
          "estimated_diameter_max" : 309.0473542854
        }
      },
      "is_potentially_hazardous_asteroid" : false,
      "close_approach_data" : [ {
        "close_approach_date" : "2010-09-15",
        "epoch_date_close_approach" : 1284534000000,
        "relative_velocity" : {
          "kilometers_per_second" : "4.3332800549",
          "kilometers_per_hour" : "15599.8081976715",
          "miles_per_hour" : "9693.1141548254"
        },
        "miss_distance" : {
          "astronomical" : "0.0614494328",
          "lunar" : "23.9038295746",
          "kilometers" : "9192705",
          "miles" : "5712082"
        },
        "orbiting_body" : "Earth"
      } ],
      "orbital_data" : {
        "orbit_id" : "28",
        "orbit_determination_date" : "2017-04-06 08:56:54",
        "orbit_uncertainty" : "5",
        "minimum_orbit_intersection" : ".0603859",
        "jupiter_tisserand_invariant" : "4.224",
        "epoch_osculation" : "2458000.5",
        "eccentricity" : ".3543288351655483",
        "semi_major_axis" : "1.638417616617972",
        "inclination" : "2.538573119144302",
        "ascending_node_longitude" : "322.2565210083433",
        "orbital_period" : "766.011589287245",
        "perihelion_distance" : "1.057879011007012",
        "perihelion_argument" : "39.66279189686122",
        "aphelion_distance" : "2.218956222228932",
        "perihelion_time" : "2457762.016089625761",
        "mean_anomaly" : "112.079515421707",
        "mean_motion" : ".4699667799216605",
        "equinox" : "J2000"
      }
    }, {
      "links" : {
        "self" : "https://api.nasa.gov/neo/rest/v1/neo/3609222?api_key=t0TVs3DtDT2H8Oy2Zy8m2eVrNsAVKAexjcZXUckd"
      },
      "neo_reference_id" : "3609222",
      "name" : "(2012 SL50)",
      "nasa_jpl_url" : "http://ssd.jpl.nasa.gov/sbdb.cgi?sstr=3609222",
      "absolute_magnitude_h" : 26.4,
      "estimated_diameter" : {
        "kilometers" : {
          "estimated_diameter_min" : 0.0139493823,
          "estimated_diameter_max" : 0.0311917671
        },
        "meters" : {
          "estimated_diameter_min" : 13.9493822934,
          "estimated_diameter_max" : 31.1917670523
        },
        "miles" : {
          "estimated_diameter_min" : 0.0086677416,
          "estimated_diameter_max" : 0.0193816595
        },
        "feet" : {
          "estimated_diameter_min" : 45.7656914036,
          "estimated_diameter_max" : 102.3351970157
        }
      },
      "is_potentially_hazardous_asteroid" : false,
      "close_approach_data" : [ {
        "close_approach_date" : "2010-09-15",
        "epoch_date_close_approach" : 1284534000000,
        "relative_velocity" : {
          "kilometers_per_second" : "16.4935718782",
          "kilometers_per_hour" : "59376.8587613911",
          "miles_per_hour" : "36894.4709342655"
        },
        "miss_distance" : {
          "astronomical" : "0.1711295488",
          "lunar" : "66.5693969727",
          "kilometers" : "25600618",
          "miles" : "15907486"
        },
        "orbiting_body" : "Earth"
      } ],
      "orbital_data" : {
        "orbit_id" : "6",
        "orbit_determination_date" : "2017-04-06 08:48:50",
        "orbit_uncertainty" : "7",
        "minimum_orbit_intersection" : ".00154557",
        "jupiter_tisserand_invariant" : "4.232",
        "epoch_osculation" : "2458000.5",
        "eccentricity" : ".4645485270911145",
        "semi_major_axis" : "1.593521451649772",
        "inclination" : "9.541938649818208",
        "ascending_node_longitude" : "184.6798235815744",
        "orbital_period" : "734.7427310617066",
        "perihelion_distance" : ".8532534083977759",
        "perihelion_argument" : "238.4269038220412",
        "aphelion_distance" : "2.333789494901768",
        "perihelion_time" : "2457707.923964506717",
        "mean_anomaly" : "143.352725144192",
        "mean_motion" : ".4899674195888924",
        "equinox" : "J2000"
      }
    }, {
      "links" : {
        "self" : "https://api.nasa.gov/neo/rest/v1/neo/3759318?api_key=t0TVs3DtDT2H8Oy2Zy8m2eVrNsAVKAexjcZXUckd"
      },
      "neo_reference_id" : "3759318",
      "name" : "(2016 RT20)",
      "nasa_jpl_url" : "http://ssd.jpl.nasa.gov/sbdb.cgi?sstr=3759318",
      "absolute_magnitude_h" : 24.4,
      "estimated_diameter" : {
        "kilometers" : {
          "estimated_diameter_min" : 0.0350392641,
          "estimated_diameter_max" : 0.0783501764
        },
        "meters" : {
          "estimated_diameter_min" : 35.0392641108,
          "estimated_diameter_max" : 78.3501764334
        },
        "miles" : {
          "estimated_diameter_min" : 0.0217723826,
          "estimated_diameter_max" : 0.0486845275
        },
        "feet" : {
          "estimated_diameter_min" : 114.9582192654,
          "estimated_diameter_max" : 257.0543928497
        }
      },
      "is_potentially_hazardous_asteroid" : false,
      "close_approach_data" : [ {
        "close_approach_date" : "2010-09-15",
        "epoch_date_close_approach" : 1284534000000,
        "relative_velocity" : {
          "kilometers_per_second" : "19.7208312048",
          "kilometers_per_hour" : "70994.9923372343",
          "miles_per_hour" : "44113.5273219887"
        },
        "miss_distance" : {
          "astronomical" : "0.113895463",
          "lunar" : "44.3053359985",
          "kilometers" : "17038518",
          "miles" : "10587245"
        },
        "orbiting_body" : "Earth"
      } ],
      "orbital_data" : {
        "orbit_id" : "2",
        "orbit_determination_date" : "2017-04-06 08:23:57",
        "orbit_uncertainty" : "7",
        "minimum_orbit_intersection" : ".0263565",
        "jupiter_tisserand_invariant" : "6.898",
        "epoch_osculation" : "2458000.5",
        "eccentricity" : ".3688135363286106",
        "semi_major_axis" : ".8279864922642783",
        "inclination" : "34.14019069107666",
        "ascending_node_longitude" : "172.2994321565694",
        "orbital_period" : "275.1904158730299",
        "perihelion_distance" : ".5226138660199681",
        "perihelion_argument" : "326.8902132224968",
        "aphelion_distance" : "1.133359118508589",
        "perihelion_time" : "2458012.780276589503",
        "mean_anomaly" : "343.9351252179481",
        "mean_motion" : "1.308185093793748",
        "equinox" : "J2000"
      }
    } ]
  }
}